NORAD_CAT_ID,OBJECT_NAME,OBJECT_TYPE,EPOCH,MEAN_MOTION,ECCENTRICITY,INCLINATION,RA_OF_ASC_NODE,ARG_OF_PERICENTER,MEAN_ANOMALY,BSTAR,MEAN_MOTION_DOT,MEAN_MOTION_DDOT,TLE_LINE0,TLE_LINE1,TLE_LINE2,SEMIMAJOR_AXIS,PERIOD,APOGEE,PERIGEE,DECAYED
55940.0,STARLINK-5864,PAYLOAD,2024-08-09 13:43:25,14.98329922,0.000264,70.0016,299.5775,252.3257,107.7614,-4.9593e-05,-6.85e-06,0.0,0 STARLINK-5864,1 55940U 23037AC  24222.57182017 -.00000685  00000-0 -49593-4 0  9996,2 55940  70.0016 299.5775 0002640 252.3257 107.7614 14.98329922 77538,6950.193,96.107,573.893,570.223,0.0
55940.0,STARLINK-5864,PAYLOAD,2024-08-10 04:08:37,14.98356929,0.0002351,70.0007,298.0599,258.175,101.9145,-0.00043147,-5.241e-05,0.0,0 STARLINK-5864,1 55940U 23037AC  24223.17265663 -.00005241  00000-0 -43147-3 0  9993,2 55940  70.0007 298.0599 0002351 258.1750 101.9145 14.98356929 77966,6950.11,96.105,573.609,570.341,0.0
55940.0,STARLINK-5864,PAYLOAD,2024-08-10 13:45:24,14.98377488,0.0002278,70.0012,297.0484,263.4375,96.6525,-0.00065173,-7.87e-05,0.0,0 STARLINK-5864,1 55940U 23037AC  24223.57320284 -.00007870  00000-0 -65173-3 0  9991,2 55940  70.0012 297.0484 0002278 263.4375  96.6525 14.98377488 77688,6950.046,96.104,573.494,570.328,0.0
55940.0,STARLINK-5864,PAYLOAD,2024-08-10 15:21:32,14.98384831,0.0002347,70.0012,296.8807,263.196,96.8932,-0.00071957,-8.68e-05,0.0,0 STARLINK-5864,1 55940U 23037AC  24223.63995771 -.00008680  00000-0 -71957-3 0  9994,2 55940  70.0012 296.8807 0002347 263.1960  96.8932 14.98384831 78032,6950.023,96.103,573.52,570.257,0.0
55940.0,STARLINK-5864,PAYLOAD,2024-08-10 21:46:05,14.98341497,0.0002716,70.0008,296.2047,277.9629,82.1221,-7.6452e-05,-1.005e-05,0.0,0 STARLINK-5864,1 55940U 23037AC  24223.90701119 -.00001005  00000-0 -76452-4 0  9995,2 55940  70.0008 296.2047 0002716 277.9629  82.1221 14.98341497 78076,6950.157,96.106,573.91,570.135,0.0
55940.0,STARLINK-5864,PAYLOAD,2024-08-11 10:35:10,14.98325273,0.0002587,70.001,294.8602,266.5518,93.5345,8.5586e-05,9.28e-06,0.0,0 STARLINK-5864,1 55940U 23037AC  24224.44109739  .00000928  00000-0  85586-4 0  9994,2 55940  70.0010 294.8602 0002587 266.5518  93.5345 14.98325273 78153,6950.208,96.107,573.871,570.274,0.0
55940.0,STARLINK-5864,PAYLOAD,2024-08-11 21:48:06,14.98334407,0.0002612,70.001,293.6819,268.4303,91.6557,0.00010468,1.156e-05,0.0,0 STARLINK-5864,1 55940U 23037AC  24224.90841081  .00001156  00000-0  10468-3 0  9998,2 55940  70.0010 293.6819 0002612 268.4303  91.6557 14.98334407 77884,6950.179,96.107,573.86,570.229,0.0
55940.0,STARLINK-5864,PAYLOAD,2024-08-12 04:12:38,14.98338652,0.0002497,70.0008,293.0086,264.8579,95.2295,9.3249e-05,1.02e-05,0.0,0 STARLINK-5864,1 55940U 23037AC  24225.17544676  .00001020  00000-0  93249-4 0  9997,2 55940  70.0008 293.0086 0002497 264.8579  95.2295 14.98338652 78265,6950.166,96.106,573.767,570.296,0.0
55940.0,STARLINK-5864,PAYLOAD,2024-08-12 10:37:10,14.98339377,0.0002934,70.0014,292.3376,269.685,90.3972,0.00012738,1.428e-05,0.0,0 STARLINK-5864,1 55940U 23037AC  24225.44248376  .00001428  00000-0  12738-3 0  9990,2 55940  70.0014 292.3376 0002934 269.6850  90.3972 14.98339377 77966,6950.164,96.106,574.068,569.99,0.0
55940.0,STARLINK-5864,PAYLOAD,2024-08-13 05:50:49,14.98311942,0.0002564,70.0005,290.3155,267.4463,92.6403,-0.00017624,-2.194e-05,0.0,0 STARLINK-5864,1 55940U 23037AC  24226.24362324 -.00002194  00000-0 -17624-3 0  9991,2 55940  70.0005 290.3155 0002564 267.4463  92.6403 14.98311942 78428,6950.249,96.108,573.896,570.332,0.0
55940.0,STARLINK-5864,PAYLOAD,2024-08-13 10:39:13,14.98316655,0.0002972,69.9986,289.8082,271.9582,88.1237,-0.00015505,-1.942e-05,0.0,0 STARLINK-5864,1 55940U 23037AC  24226.44390129 -.00001942  00000-0 -15505-3 0  9993,2 55940  69.9986 289.8082 0002972 271.9582  88.1237 14.98316655 78117,6950.234,96.108,574.165,570.034,0.0
55940.0,STARLINK-5864,PAYLOAD,2024-08-13 21:52:09,14.98320774,0.0002779,69.9995,288.6313,271.2579,88.8262,-0.00013727,-1.73e-05,0.0,0 STARLINK-5864,1 55940U 23037AC  24226.91122170 -.00001730  00000-0 -13727-3 0  9993,2 55940  69.9995 288.6313 0002779 271.2579  88.8262 14.98320774 78184,6950.221,96.108,574.018,570.155,0.0
55940.0,STARLINK-5864,PAYLOAD,2024-08-14 05:52:49,14.98314468,0.0003053,69.9987,287.7882,267.562,92.5189,-7.6869e-06,-1.85e-06,0.0,0 STARLINK-5864,1 55940U 23037AC  24227.24502228 -.00000185  00000-0 -76869-5 0  9997,2 55940  69.9987 287.7882 0003053 267.5620  92.5189 14.98314468 78573,6950.241,96.108,574.228,569.984,0.0
55940.0,STARLINK-5864,PAYLOAD,2024-08-14 13:53:30,14.98321833,0.0002636,69.9989,286.9467,259.9355,100.1507,-0.0001392,-1.753e-05,0.0,0 STARLINK-5864,1 55940U 23037AC  24227.57882362 -.00001753  00000-0 -13920-3 0  9992,2 55940  69.9989 286.9467 0002636 259.9355 100.1507 14.98321833 78283,6950.218,96.108,573.915,570.251,0.0
55940.0,STARLINK-5864,PAYLOAD,2024-08-14 21:54:10,14.98311823,0.0002781,69.9989,286.1053,271.3374,88.7466,0.00017784,2.029e-05,0.0,0 STARLINK-5864,1 55940U 23037AC  24227.91262223  .00002029  00000-0  17784-3 0  9995,2 55940  69.9989 286.1053 0002781 271.3374  88.7466 14.98311823 78335,6950.249,96.108,574.047,570.181,0.0
55940.0,STARLINK-5864,PAYLOAD,2024-08-15 04:18:42,14.98317237,0.0002842,69.9986,285.4318,271.615,88.4684,0.00022436,2.584e-05,0.0,0 STARLINK-5864,1 55940U 23037AC  24228.17966066  .00002584  00000-0  22436-3 0  9996,2 55940  69.9986 285.4318 0002842 271.6150  88.4684 14.98317237 78717,6950.232,96.108,574.073,570.122,0.0
55940.0,STARLINK-5864,PAYLOAD,2024-08-15 10:43:14,14.98351333,0.000305,69.9986,284.7588,269.4581,90.6229,-0.00031109,-3.805e-05,0.0,0 STARLINK-5864,1 55940U 23037AC  24228.44669287 -.00003805  00000-0 -31109-3 0  9997,2 55940  69.9986 284.7588 0003050 269.4581  90.6229 14.98351333 78415,6950.127,96.106,574.112,569.872,0.0
55940.0,STARLINK-5864,PAYLOAD,2024-08-16 04:20:43,14.98330371,0.0002941,69.9983,282.9072,271.436,88.6462,0.0002746,3.185e-05,0.0,0 STARLINK-5864,1 55940U 23037AC  24229.18105699  .00003185  00000-0  27460-3 0  9995,2 55940  69.9983 282.9072 0002941 271.4360  88.6462 14.98330371 78860,6950.192,96.107,574.101,570.013,0.0
55940.0,STARLINK-5864,PAYLOAD,2024-08-16 09:09:07,14.98333846,0.0002948,69.9984,282.4022,271.37,88.7122,0.00031897,3.715e-05,0.0,0 STARLINK-5864,1 55940U 23037AC  24229.38133549  .00003715  00000-0  31897-3 0  9990,2 55940  69.9984 282.4022 0002948 271.3700  88.7122 14.98333846 78555,6950.181,96.107,574.095,569.997,0.0
55940.0,STARLINK-5864,PAYLOAD,2024-08-17 04:22:44,14.98338504,0.0002941,69.9985,280.3823,271.6463,88.436,0.00015199,1.721e-05,0.0,0 STARLINK-5864,1 55940U 23037AC  24230.18245416  .00001721  00000-0  15199-3 0  9999,2 55940  69.9985 280.3823 0002941 271.6463  88.4360 14.98338504 79013,6950.167,96.106,574.076,569.988,0.0
55940.0,STARLINK-5864,PAYLOAD,2024-08-17 07:35:00,14.98337597,0.0002966,69.9984,280.0457,271.487,88.5949,0.00013774,1.551e-05,0.0,0 STARLINK-5864,1 55940U 23037AC  24230.31597441  .00001551  00000-0  13774-3 0  9990,2 55940  69.9984 280.0457 0002966 271.4870  88.5949 14.98337597 78697,6950.169,96.107,574.096,569.973,0.0
55940.0,STARLINK-5864,PAYLOAD,2024-08-18 04:24:44,14.98338078,0.0003137,69.9981,277.8571,275.4591,84.6211,-3.0739e-06,-1.3e-06,0.0,0 STARLINK-5864,1 55940U 23037AC  24231.18385215 -.00000130  00000-0 -30739-5 0  9996,2 55940  69.9981 277.8571 0003137 275.4591  84.6211 14.98338078 79167,6950.168,96.106,574.213,569.853,0.0
55940.0,STARLINK-5864,PAYLOAD,2024-08-18 06:00:52,14.98337652,0.0003174,69.998,277.6888,276.0719,84.0078,-1.3631e-05,-2.56e-06,0.0,0 STARLINK-5864,1 55940U 23037AC  24231.25061212 -.00000256  00000-0 -13631-4 0  9992,2 55940  69.9980 277.6888 0003174 276.0719  84.0078 14.98337652 78830,6950.169,96.107,574.24,569.828,0.0
55940.0,STARLINK-5864,PAYLOAD,2024-08-18 12:25:25,14.98336844,0.0002963,69.9983,277.0156,271.4821,88.5998,-2.8379e-05,-4.32e-06,0.0,0 STARLINK-5864,1 55940U 23037AC  24231.51765069 -.00000432  00000-0 -28379-4 0  9993,2 55940  69.9983 277.0156 0002963 271.4821  88.5998 14.98336844 78879,6950.172,96.107,574.096,569.977,0.0
55940.0,STARLINK-5864,PAYLOAD,2024-08-19 04:26:45,14.98328502,0.0002715,69.9988,275.3328,263.0207,97.0643,4.8385e-06,-3.5e-07,0.0,0 STARLINK-5864,1 55940U 23037AC  24232.18525310 -.00000035  00000-0  48385-5 0  9998,2 55940  69.9988 275.3328 0002715 263.0207  97.0643 14.98328502 79310,6950.198,96.107,573.95,570.176,0.0
55940.0,STARLINK-5864,PAYLOAD,2024-08-19 09:15:10,14.98326679,0.0002908,69.9983,274.8272,267.8974,92.1852,-2.4097e-05,-3.8e-06,0.0,0 STARLINK-5864,1 55940U 23037AC  24232.38553524 -.00000380  00000-0 -24097-4 0  9995,2 55940  69.9983 274.8272 0002908 267.8974  92.1852 14.98326679 79001,6950.203,96.107,574.089,570.047,0.0
55940.0,STARLINK-5864,PAYLOAD,2024-08-20 04:28:46,14.98332442,0.0003074,69.9978,272.8066,269.8071,90.2735,5.6709e-05,5.84e-06,0.0,0 STARLINK-5864,1 55940U 23037AC  24233.18664967  .00000584  00000-0  56709-4 0  9997,2 55940  69.9978 272.8066 0003074 269.8071  90.2735 14.98332442 79463,6950.185,96.107,574.187,569.914,0.0
55940.0,STARLINK-5864,PAYLOAD,2024-08-20 12:29:26,14.98334599,0.0003071,69.9978,271.9649,269.7447,90.336,7.6063e-05,8.15e-06,0.0,0 STARLINK-5864,1 55940U 23037AC  24233.52044729  .00000815  00000-0  76063-4 0  9995,2 55940  69.9978 271.9649 0003071 269.7447  90.3360 14.98334599 79171,6950.179,96.107,574.178,569.909,0.0
55940.0,STARLINK-5864,PAYLOAD,2024-08-21 04:30:47,14.98328596,0.0003082,69.9978,270.2816,269.765,90.3156,6.8186e-05,7.21e-06,0.0,0 STARLINK-5864,1 55940U 23037AC  24234.18805141  .00000721  00000-0  68186-4 0  9994,2 55940  69.9978 270.2816 0003082 269.7650  90.3156 14.98328596 79619,6950.197,96.107,574.204,569.92,0.0
55940.0,STARLINK-5864,PAYLOAD,2024-08-21 12:31:27,14.98329095,0.0003093,69.9979,269.44,269.8952,90.1852,6.6304e-05,6.98e-06,0.0,0 STARLINK-5864,1 55940U 23037AC  24234.52185156  .00000698  00000-0  66304-4 0  9992,2 55940  69.9979 269.4400 0003093 269.8952  90.1852 14.98329095 79321,6950.196,96.107,574.21,569.911,0.0
